{
  "type": "FeatureCollection",
  "features": [
    {
      "type": "Feature",
      "geometry": {
        "type": "Point",
        "coordinates": [
          121.52006,
          25.09997
        ]
      },
      "properties": {
        "city": "臺北市",
        "district": "士林區",
        "category": "資源回收",
        "name": "蘭雅 限時收受點",
        "address": "臺北市士林區文昌路211之3號"
      }
    },
    {
      "type": "Feature",
      "geometry": {
        "type": "Point",
        "coordinates": [
          121.50647,
          25.08603
        ]
      },
      "properties": {
        "city": "臺北市",
        "district": "士林區",
        "category": "資源回收",
        "name": "社子 限時收受點",
        "address": "臺北市士林區中正路臨692號對面"
      }
    },
    {
      "type": "Feature",
      "geometry": {
        "type": "Point",
        "coordinates": [
          121.52771,
          25.11576
        ]
      },
      "properties": {
        "city": "臺北市",
        "district": "士林區",
        "category": "資源回收",
        "name": "天母 限時收受點",
        "address": "臺北市士林區中山北路6段763巷臨2號對面(垃圾車駐點)"
      }
    },
    {
      "type": "Feature",
      "geometry": {
        "type": "Point",
        "coordinates": [
          121.52059,
          25.076
        ]
      },
      "properties": {
        "city": "臺北市",
        "district": "大同區",
        "category": "資源回收",
        "name": "大龍 限時收受點",
        "address": "臺北市大同區承德路3段303號之1"
      }
    },
    {
      "type": "Feature",
      "geometry": {
        "type": "Point",
        "coordinates": [
          121.51439,
          25.06284
        ]
      },
      "properties": {
        "city": "臺北市",
        "district": "大同區",
        "category": "資源回收",
        "name": "建成 限時收受點",
        "address": "臺北市大同區民權西路臨194之1號"
      }
    },
    {
      "type": "Feature",
      "geometry": {
        "type": "Point",
        "coordinates": [
          121.5072,
          25.0525
        ]
      },
      "properties": {
        "city": "臺北市",
        "district": "大同區",
        "category": "資源回收",
        "name": "延平 限時收受點",
        "address": "臺北市大同區環河北路1段63號之1"
      }
    },
    {
      "type": "Feature",
      "geometry": {
        "type": "Point",
        "coordinates": [
          121.5328,
          25.0223
        ]
      },
      "properties": {
        "city": "臺北市",
        "district": "大安區",
        "category": "資源回收",
        "name": "和平 限時收受點",
        "address": "臺北市大安區辛亥路1段臨143號"
      }
    },
    {
      "type": "Feature",
      "geometry": {
        "type": "Point",
        "coordinates": [
          121.53778,
          25.02495
        ]
      },
      "properties": {
        "city": "臺北市",
        "district": "大安區",
        "category": "資源回收",
        "name": "瑞安 限時收受點",
        "address": "臺北市大安區建國南路2段臨263號"
      }
    },
    {
      "type": "Feature",
      "geometry": {
        "type": "Point",
        "coordinates": [
          121.53528,
          25.02242
        ]
      },
      "properties": {
        "city": "臺北市",
        "district": "大安區",
        "category": "資源回收",
        "name": "臺大 限時收受點",
        "address": "臺北市大安區辛亥路1段臨138號"
      }
    },
    {
      "type": "Feature",
      "geometry": {
        "type": "Point",
        "coordinates": [
          121.54693,
          25.01937
        ]
      },
      "properties": {
        "city": "臺北市",
        "district": "大安區",
        "category": "資源回收",
        "name": "臥龍 限時收受點",
        "address": "臺北市大安區基隆路3段臨24號"
      }
    },
    {
      "type": "Feature",
      "geometry": {
        "type": "Point",
        "coordinates": [
          121.53785,
          25.03986
        ]
      },
      "properties": {
        "city": "臺北市",
        "district": "大安區",
        "category": "資源回收",
        "name": "新生 限時收受點",
        "address": "臺北市大安區建國南路1段臨173號"
      }
    },
    {
      "type": "Feature",
      "geometry": {
        "type": "Point",
        "coordinates": [
          121.53707,
          25.04182
        ]
      },
      "properties": {
        "city": "臺北市",
        "district": "大安區",
        "category": "資源回收",
        "name": "敦化 限時收受點",
        "address": "臺北市大安區忠孝東路3段臨31號"
      }
    },
    {
      "type": "Feature",
      "geometry": {
        "type": "Point",
        "coordinates": [
          121.53785,
          25.02882
        ]
      },
      "properties": {
        "city": "臺北市",
        "district": "大安區",
        "category": "資源回收",
        "name": "建南 停車場 限時收受點",
        "address": "臺北市大安區建國南路2段臨149號"
      }
    },
    {
      "type": "Feature",
      "geometry": {
        "type": "Point",
        "coordinates": [
          121.53685,
          25.04628
        ]
      },
      "properties": {
        "city": "臺北市",
        "district": "中山區",
        "category": "資源回收",
        "name": "長安 限時收受點",
        "address": "臺北市中山區建國北路1段臨5-1號"
      }
    },
    {
      "type": "Feature",
      "geometry": {
        "type": "Point",
        "coordinates": [
          121.52748,
          25.05412
        ]
      },
      "properties": {
        "city": "臺北市",
        "district": "中山區",
        "category": "資源回收",
        "name": "中山 限時收受點",
        "address": "臺北市中山區新生北路2段臨30-1號"
      }
    },
    {
      "type": "Feature",
      "geometry": {
        "type": "Point",
        "coordinates": [
          121.54174,
          25.05456
        ]
      },
      "properties": {
        "city": "臺北市",
        "district": "中山區",
        "category": "資源回收",
        "name": "南京 限時收受點",
        "address": "臺北市中山區長春路350號"
      }
    },
    {
      "type": "Feature",
      "geometry": {
        "type": "Point",
        "coordinates": [
          121.54577,
          25.07292
        ]
      },
      "properties": {
        "city": "臺北市",
        "district": "中山區",
        "category": "資源回收",
        "name": "大直 停車場 限時收受點",
        "address": "臺北市中山區濱江街301巷內"
      }
    },
    {
      "type": "Feature",
      "geometry": {
        "type": "Point",
        "coordinates": [
          121.52533,
          25.02094
        ]
      },
      "properties": {
        "city": "臺北市",
        "district": "中正區",
        "category": "資源回收",
        "name": "師大路 停車場 限時收受點",
        "address": "臺北市中正區師大路臨241號"
      }
    },
    {
      "type": "Feature",
      "geometry": {
        "type": "Point",
        "coordinates": [
          121.57479,
          25.07005
        ]
      },
      "properties": {
        "city": "臺北市",
        "district": "內湖區",
        "category": "資源回收",
        "name": "內湖 停車場 限時收受點",
        "address": "臺北市內湖區舊宗路2段臨158號"
      }
    },
    {
      "type": "Feature",
      "geometry": {
        "type": "Point",
        "coordinates": [
          121.54512,
          25.00126
        ]
      },
      "properties": {
        "city": "臺北市",
        "district": "文山區",
        "category": "資源回收",
        "name": "興隆 限時收受點",
        "address": "臺北市文山區景豐街臨82號對面(垃圾車駐點)"
      }
    },
    {
      "type": "Feature",
      "geometry": {
        "type": "Point",
        "coordinates": [
          121.56851,
          25.00229
        ]
      },
      "properties": {
        "city": "臺北市",
        "district": "文山區",
        "category": "資源回收",
        "name": "博嘉 限時收受點",
        "address": "臺北市文山區萬美街1段47號"
      }
    },
    {
      "type": "Feature",
      "geometry": {
        "type": "Point",
        "coordinates": [
          121.5356,
          25.00245
        ]
      },
      "properties": {
        "city": "臺北市",
        "district": "文山區",
        "category": "資源回收",
        "name": "景美 限時收受點",
        "address": "臺北市文山區溪洲街臨220號"
      }
    },
    {
      "type": "Feature",
      "geometry": {
        "type": "Point",
        "coordinates": [
          121.54636,
          25.15127
        ]
      },
      "properties": {
        "city": "臺北市",
        "district": "北投區",
        "category": "資源回收",
        "name": "陽明一班 限時收受點",
        "address": "臺北市北投區紗帽路141巷23號"
      }
    },
    {
      "type": "Feature",
      "geometry": {
        "type": "Point",
        "coordinates": [
          121.49836,
          25.11205
        ]
      },
      "properties": {
        "city": "臺北市",
        "district": "北投區",
        "category": "資源回收",
        "name": "石牌 限時收受點",
        "address": "臺北市北投區承德路7段393巷200號"
      }
    },
    {
      "type": "Feature",
      "geometry": {
        "type": "Point",
        "coordinates": [
          121.46703,
          25.12311
        ]
      },
      "properties": {
        "city": "臺北市",
        "district": "北投區",
        "category": "資源回收",
        "name": "關渡 限時收受點",
        "address": "臺北市北投區大度路3段臨250號"
      }
    },
    {
      "type": "Feature",
      "geometry": {
        "type": "Point",
        "coordinates": [
          121.56934,
          25.05127
        ]
      },
      "properties": {
        "city": "臺北市",
        "district": "松山區",
        "category": "資源回收",
        "name": "松山 限時收受點",
        "address": "臺北市松山區南京東路5段356號對面橋下"
      }
    },
    {
      "type": "Feature",
      "geometry": {
        "type": "Point",
        "coordinates": [
          121.62225,
          25.02897
        ]
      },
      "properties": {
        "city": "臺北市",
        "district": "南港區",
        "category": "資源回收",
        "name": "南港 停車場 限時收受點",
        "address": "臺北市南港區南深路37-1號"
      }
    },
    {
      "type": "Feature",
      "geometry": {
        "type": "Point",
        "coordinates": [
          121.61112,
          25.06107
        ]
      },
      "properties": {
        "city": "臺北市",
        "district": "南港區",
        "category": "資源回收",
        "name": "南港 限時收受點",
        "address": "臺北市南港區松河街699號"
      }
    },
    {
      "type": "Feature",
      "geometry": {
        "type": "Point",
        "coordinates": [
          121.489,
          25.03295
        ]
      },
      "properties": {
        "city": "臺北市",
        "district": "萬華區",
        "category": "資源回收",
        "name": "大理 限時收受點",
        "address": "臺北市萬華區長順街臨131號"
      }
    },
    {
      "type": "Feature",
      "geometry": {
        "type": "Point",
        "coordinates": [
          121.50975,
          25.05034
        ]
      },
      "properties": {
        "city": "臺北市",
        "district": "萬華區",
        "category": "資源回收",
        "name": "萬華 停車場 限時收受點",
        "address": "臺北市萬華區鄭州路及環河北路1段交口"
      }
    },
    {
      "type": "Feature",
      "geometry": {
        "type": "Point",
        "coordinates": [
          121.45957212104587,
          25.0063192529937
        ]
      },
      "properties": {
        "city": "新北市",
        "district": "板橋區",
        "category": "資源回收",
        "name": "林爽",
        "address": "新北市板橋區大觀路二段37巷280號"
      }
    },
    {
      "type": "Feature",
      "geometry": {
        "type": "Point",
        "coordinates": [
          121.4715227626638,
          25.012231418590932
        ]
      },
      "properties": {
        "city": "新北市",
        "district": "板橋區",
        "category": "資源回收",
        "name": "周建和",
        "address": "新北市板橋區重慶路245巷50弄17號"
      }
    },
    {
      "type": "Feature",
      "geometry": {
        "type": "Point",
        "coordinates": [
          121.47146570475539,
          25.0089229000323
        ]
      },
      "properties": {
        "city": "新北市",
        "district": "板橋區",
        "category": "資源回收",
        "name": "林志成",
        "address": "新北市板橋區景福路11號"
      }
    },
    {
      "type": "Feature",
      "geometry": {
        "type": "Point",
        "coordinates": [
          121.45905053639359,
          25.003044674365388
        ]
      },
      "properties": {
        "city": "新北市",
        "district": "板橋區",
        "category": "資源回收",
        "name": "林重光",
        "address": "新北市板橋區民生路三段263巷7號"
      }
    },
    {
      "type": "Feature",
      "geometry": {
        "type": "Point",
        "coordinates": [
          121.46532293779136,
          25.01856464652494
        ]
      },
      "properties": {
        "city": "新北市",
        "district": "板橋區",
        "category": "資源回收",
        "name": "陳寶銓",
        "address": "新北市板橋區四川路二段99之9號"
      }
    },
    {
      "type": "Feature",
      "geometry": {
        "type": "Point",
        "coordinates": [
          121.46176535522555,
          25.008483209638836
        ]
      },
      "properties": {
        "city": "新北市",
        "district": "板橋區",
        "category": "資源回收",
        "name": "李蔡春花",
        "address": "新北市板橋區和平路安樂巷51號"
      }
    },
    {
      "type": "Feature",
      "geometry": {
        "type": "Point",
        "coordinates": [
          121.44611592135662,
          25.01606142359532
        ]
      },
      "properties": {
        "city": "新北市",
        "district": "板橋區",
        "category": "資源回收",
        "name": "王聰震",
        "address": "新北市板橋區永豐街124號(永豐公園活動中心旁巡守隊崗哨)"
      }
    },
    {
      "type": "Feature",
      "geometry": {
        "type": "Point",
        "coordinates": [
          121.45558983610621,
          25.024128747145166
        ]
      },
      "properties": {
        "city": "新北市",
        "district": "板橋區",
        "category": "資源回收",
        "name": "陳聰文",
        "address": "新北市板橋區長安街331巷60號"
      }
    },
    {
      "type": "Feature",
      "geometry": {
        "type": "Point",
        "coordinates": [
          121.45559346620921,
          25.018937402536146
        ]
      },
      "properties": {
        "city": "新北市",
        "district": "板橋區",
        "category": "資源回收",
        "name": "許鳳霞",
        "address": "新北市板橋區國慶路149巷3弄6號旁"
      }
    },
    {
      "type": "Feature",
      "geometry": {
        "type": "Point",
        "coordinates": [
          121.4655522635,
          25.018688665183994
        ]
      },
      "properties": {
        "city": "新北市",
        "district": "板橋區",
        "category": "資源回收",
        "name": "曾國旃",
        "address": "新北市板橋區民生路二段60號"
      }
    },
    {
      "type": "Feature",
      "geometry": {
        "type": "Point",
        "coordinates": [
          121.4585347339271,
          25.004164705206215
        ]
      },
      "properties": {
        "city": "新北市",
        "district": "板橋區",
        "category": "資源回收",
        "name": "謝秀娥",
        "address": "新北市板橋區大華街168號 新北市板橋區四川路一段274巷3號(里辦)"
      }
    },
    {
      "type": "Feature",
      "geometry": {
        "type": "Point",
        "coordinates": [
          121.47256737599463,
          25.01706944851344
        ]
      },
      "properties": {
        "city": "新北市",
        "district": "板橋區",
        "category": "資源回收",
        "name": "蕭水文",
        "address": "新北市板橋區公館街96號"
      }
    },
    {
      "type": "Feature",
      "geometry": {
        "type": "Point",
        "coordinates": [
          121.45143544145232,
          25.003133152991875
        ]
      },
      "properties": {
        "city": "新北市",
        "district": "板橋區",
        "category": "資源回收",
        "name": "王山崎",
        "address": "新北市板橋區溪洲里溪崑二街113號(溪洲公園活動中心)"
      }
    },
    {
      "type": "Feature",
      "geometry": {
        "type": "Point",
        "coordinates": [
          121.45641503355665,
          25.02804812411112
        ]
      },
      "properties": {
        "city": "新北市",
        "district": "板橋區",
        "category": "資源回收",
        "name": "劉慧琳",
        "address": "新北市板橋區忠孝路忠義巷9弄1-1號1樓(福泰社區活動中心)"
      }
    },
    {
      "type": "Feature",
      "geometry": {
        "type": "Point",
        "coordinates": [
          121.46363871565637,
          25.01570860874009
        ]
      },
      "properties": {
        "city": "新北市",
        "district": "板橋區",
        "category": "資源回收",
        "name": "張錦堂",
        "address": "新北市板橋區重慶路290巷12號"
      }
    },
    {
      "type": "Feature",
      "geometry": {
        "type": "Point",
        "coordinates": [
          121.45237886847643,
          25.021666987727286
        ]
      },
      "properties": {
        "city": "新北市",
        "district": "板橋區",
        "category": "資源回收",
        "name": "陳志煉",
        "address": "新北市板橋區國泰街75巷2弄15號"
      }
    },
    {
      "type": "Feature",
      "geometry": {
        "type": "Point",
        "coordinates": [
          121.45112616409925,
          25.01200624530098
        ]
      },
      "properties": {
        "city": "新北市",
        "district": "板橋區",
        "category": "資源回收",
        "name": "鄧月茶",
        "address": "新北市板橋區金門街97號"
      }
    },
    {
      "type": "Feature",
      "geometry": {
        "type": "Point",
        "coordinates": [
          121.46608668028402,
          25.008632620604594
        ]
      },
      "properties": {
        "city": "新北市",
        "district": "板橋區",
        "category": "資源回收",
        "name": "蔡世川",
        "address": "新北市板橋區大觀路二段174巷147號旁空地"
      }
    },
    {
      "type": "Feature",
      "geometry": {
        "type": "Point",
        "coordinates": [
          121.47018347680185,
          25.013802700646494
        ]
      },
      "properties": {
        "city": "新北市",
        "district": "板橋區",
        "category": "資源回收",
        "name": "林榮彩",
        "address": "新北市板橋區大明街20巷19弄13號1樓"
      }
    },
    {
      "type": "Feature",
      "geometry": {
        "type": "Point",
        "coordinates": [
          121.45919664540195,
          25.021590438292954
        ]
      },
      "properties": {
        "city": "新北市",
        "district": "板橋區",
        "category": "資源回收",
        "name": "黃榮煌",
        "address": "新北市板橋區僑中一街102巷7弄1號"
      }
    },
    {
      "type": "Feature",
      "geometry": {
        "type": "Point",
        "coordinates": [
          121.44564496001573,
          25.001263426598843
        ]
      },
      "properties": {
        "city": "新北市",
        "district": "板橋區",
        "category": "資源回收",
        "name": "謝淑姿",
        "address": "新北市板橋區南雅西路二段307號"
      }
    },
    {
      "type": "Feature",
      "geometry": {
        "type": "Point",
        "coordinates": [
          121.45628504039183,
          25.016818100360368
        ]
      },
      "properties": {
        "city": "新北市",
        "district": "板橋區",
        "category": "資源回收",
        "name": "何明山",
        "address": "新北市板橋區僑中二街92巷1號"
      }
    },
    {
      "type": "Feature",
      "geometry": {
        "type": "Point",
        "coordinates": [
          121.4552436681611,
          25.000711501045277
        ]
      },
      "properties": {
        "city": "新北市",
        "district": "板橋區",
        "category": "資源回收",
        "name": "朱泰霖",
        "address": "新北市板橋區四川路一段157巷9號(活動中心)"
      }
    },
    {
      "type": "Feature",
      "geometry": {
        "type": "Point",
        "coordinates": [
          121.45446243399655,
          25.021031667503106
        ]
      },
      "properties": {
        "city": "新北市",
        "district": "板橋區",
        "category": "資源回收",
        "name": "洪宗信",
        "address": "新北市板橋區金華街10巷4號(活動中心)"
      }
    },
    {
      "type": "Feature",
      "geometry": {
        "type": "Point",
        "coordinates": [
          121.46535311247494,
          25.02851875220932
        ]
      },
      "properties": {
        "city": "新北市",
        "district": "板橋區",
        "category": "資源回收",
        "name": "劉憲鐘",
        "address": "新北市板橋區貴興路8號"
      }
    },
    {
      "type": "Feature",
      "geometry": {
        "type": "Point",
        "coordinates": [
          121.45781033920495,
          25.00187395736866
        ]
      },
      "properties": {
        "city": "新北市",
        "district": "板橋區",
        "category": "資源回收",
        "name": "黃明和",
        "address": "新北市板橋區永豐街58號"
      }
    },
    {
      "type": "Feature",
      "geometry": {
        "type": "Point",
        "coordinates": [
          121.46909009291666,
          25.004061633724554
        ]
      },
      "properties": {
        "city": "新北市",
        "district": "板橋區",
        "category": "資源回收",
        "name": "黃發達",
        "address": "新北市板橋區民生路2段226巷17弄9號(美廉社對面)"
      }
    },
    {
      "type": "Feature",
      "geometry": {
        "type": "Point",
        "coordinates": [
          121.4542654241211,
          25.004189427213728
        ]
      },
      "properties": {
        "city": "新北市",
        "district": "板橋區",
        "category": "資源回收",
        "name": "葉中正",
        "address": "新北市板橋區仁愛路62巷15弄16號"
      }
    },
    {
      "type": "Feature",
      "geometry": {
        "type": "Point",
        "coordinates": [
          121.46493627309235,
          25.020608959897835
        ]
      },
      "properties": {
        "city": "新北市",
        "district": "板橋區",
        "category": "資源回收",
        "name": "黃閎源",
        "address": "新北市板橋區信義路74巷7弄3號"
      }
    },
    {
      "type": "Feature",
      "geometry": {
        "type": "Point",
        "coordinates": [
          121.45433866629129,
          25.002771095738748
        ]
      },
      "properties": {
        "city": "新北市",
        "district": "板橋區",
        "category": "資源回收",
        "name": "楊秋菊",
        "address": "新北市板橋區金門街336巷7號"
      }
    }
  ]
}