{
  "type": "FeatureCollection",
  "features": [
    {
      "type": "Feature",
      "geometry": {
        "type": "Point",
        "coordinates": [
          121.52006,
          25.09997
        ]
      },
      "properties": {
        "city": "臺北市",
        "district": "士林區",
        "category": "資源回收",
        "name": "蘭雅 限時收受點",
        "address": "臺北市士林區文昌路211之3號"
      }
    },
    {
      "type": "Feature",
      "geometry": {
        "type": "Point",
        "coordinates": [
          121.50647,
          25.08603
        ]
      },
      "properties": {
        "city": "臺北市",
        "district": "士林區",
        "category": "資源回收",
        "name": "社子 限時收受點",
        "address": "臺北市士林區中正路臨692號對面"
      }
    },
    {
      "type": "Feature",
      "geometry": {
        "type": "Point",
        "coordinates": [
          121.52771,
          25.11576
        ]
      },
      "properties": {
        "city": "臺北市",
        "district": "士林區",
        "category": "資源回收",
        "name": "天母 限時收受點",
        "address": "臺北市士林區中山北路6段763巷臨2號對面(垃圾車駐點)"
      }
    },
    {
      "type": "Feature",
      "geometry": {
        "type": "Point",
        "coordinates": [
          121.52059,
          25.076
        ]
      },
      "properties": {
        "city": "臺北市",
        "district": "大同區",
        "category": "資源回收",
        "name": "大龍 限時收受點",
        "address": "臺北市大同區承德路3段303號之1"
      }
    },
    {
      "type": "Feature",
      "geometry": {
        "type": "Point",
        "coordinates": [
          121.51439,
          25.06284
        ]
      },
      "properties": {
        "city": "臺北市",
        "district": "大同區",
        "category": "資源回收",
        "name": "建成 限時收受點",
        "address": "臺北市大同區民權西路臨194之1號"
      }
    },
    {
      "type": "Feature",
      "geometry": {
        "type": "Point",
        "coordinates": [
          121.5072,
          25.0525
        ]
      },
      "properties": {
        "city": "臺北市",
        "district": "大同區",
        "category": "資源回收",
        "name": "延平 限時收受點",
        "address": "臺北市大同區環河北路1段63號之1"
      }
    },
    {
      "type": "Feature",
      "geometry": {
        "type": "Point",
        "coordinates": [
          121.5328,
          25.0223
        ]
      },
      "properties": {
        "city": "臺北市",
        "district": "大安區",
        "category": "資源回收",
        "name": "和平 限時收受點",
        "address": "臺北市大安區辛亥路1段臨143號"
      }
    },
    {
      "type": "Feature",
      "geometry": {
        "type": "Point",
        "coordinates": [
          121.53778,
          25.02495
        ]
      },
      "properties": {
        "city": "臺北市",
        "district": "大安區",
        "category": "資源回收",
        "name": "瑞安 限時收受點",
        "address": "臺北市大安區建國南路2段臨263號"
      }
    },
    {
      "type": "Feature",
      "geometry": {
        "type": "Point",
        "coordinates": [
          121.53528,
          25.02242
        ]
      },
      "properties": {
        "city": "臺北市",
        "district": "大安區",
        "category": "資源回收",
        "name": "臺大 限時收受點",
        "address": "臺北市大安區辛亥路1段臨138號"
      }
    },
    {
      "type": "Feature",
      "geometry": {
        "type": "Point",
        "coordinates": [
          121.54693,
          25.01937
        ]
      },
      "properties": {
        "city": "臺北市",
        "district": "大安區",
        "category": "資源回收",
        "name": "臥龍 限時收受點",
        "address": "臺北市大安區基隆路3段臨24號"
      }
    },
    {
      "type": "Feature",
      "geometry": {
        "type": "Point",
        "coordinates": [
          121.53785,
          25.03986
        ]
      },
      "properties": {
        "city": "臺北市",
        "district": "大安區",
        "category": "資源回收",
        "name": "新生 限時收受點",
        "address": "臺北市大安區建國南路1段臨173號"
      }
    },
    {
      "type": "Feature",
      "geometry": {
        "type": "Point",
        "coordinates": [
          121.53707,
          25.04182
        ]
      },
      "properties": {
        "city": "臺北市",
        "district": "大安區",
        "category": "資源回收",
        "name": "敦化 限時收受點",
        "address": "臺北市大安區忠孝東路3段臨31號"
      }
    },
    {
      "type": "Feature",
      "geometry": {
        "type": "Point",
        "coordinates": [
          121.53785,
          25.02882
        ]
      },
      "properties": {
        "city": "臺北市",
        "district": "大安區",
        "category": "資源回收",
        "name": "建南 停車場 限時收受點",
        "address": "臺北市大安區建國南路2段臨149號"
      }
    },
    {
      "type": "Feature",
      "geometry": {
        "type": "Point",
        "coordinates": [
          121.53685,
          25.04628
        ]
      },
      "properties": {
        "city": "臺北市",
        "district": "中山區",
        "category": "資源回收",
        "name": "長安 限時收受點",
        "address": "臺北市中山區建國北路1段臨5-1號"
      }
    },
    {
      "type": "Feature",
      "geometry": {
        "type": "Point",
        "coordinates": [
          121.52748,
          25.05412
        ]
      },
      "properties": {
        "city": "臺北市",
        "district": "中山區",
        "category": "資源回收",
        "name": "中山 限時收受點",
        "address": "臺北市中山區新生北路2段臨30-1號"
      }
    },
    {
      "type": "Feature",
      "geometry": {
        "type": "Point",
        "coordinates": [
          121.54174,
          25.05456
        ]
      },
      "properties": {
        "city": "臺北市",
        "district": "中山區",
        "category": "資源回收",
        "name": "南京 限時收受點",
        "address": "臺北市中山區長春路350號"
      }
    },
    {
      "type": "Feature",
      "geometry": {
        "type": "Point",
        "coordinates": [
          121.54577,
          25.07292
        ]
      },
      "properties": {
        "city": "臺北市",
        "district": "中山區",
        "category": "資源回收",
        "name": "大直 停車場 限時收受點",
        "address": "臺北市中山區濱江街301巷內"
      }
    },
    {
      "type": "Feature",
      "geometry": {
        "type": "Point",
        "coordinates": [
          121.52533,
          25.02094
        ]
      },
      "properties": {
        "city": "臺北市",
        "district": "中正區",
        "category": "資源回收",
        "name": "師大路 停車場 限時收受點",
        "address": "臺北市中正區師大路臨241號"
      }
    },
    {
      "type": "Feature",
      "geometry": {
        "type": "Point",
        "coordinates": [
          121.57479,
          25.07005
        ]
      },
      "properties": {
        "city": "臺北市",
        "district": "內湖區",
        "category": "資源回收",
        "name": "內湖 停車場 限時收受點",
        "address": "臺北市內湖區舊宗路2段臨158號"
      }
    },
    {
      "type": "Feature",
      "geometry": {
        "type": "Point",
        "coordinates": [
          121.54512,
          25.00126
        ]
      },
      "properties": {
        "city": "臺北市",
        "district": "文山區",
        "category": "資源回收",
        "name": "興隆 限時收受點",
        "address": "臺北市文山區景豐街臨82號對面(垃圾車駐點)"
      }
    },
    {
      "type": "Feature",
      "geometry": {
        "type": "Point",
        "coordinates": [
          121.56851,
          25.00229
        ]
      },
      "properties": {
        "city": "臺北市",
        "district": "文山區",
        "category": "資源回收",
        "name": "博嘉 限時收受點",
        "address": "臺北市文山區萬美街1段47號"
      }
    },
    {
      "type": "Feature",
      "geometry": {
        "type": "Point",
        "coordinates": [
          121.5356,
          25.00245
        ]
      },
      "properties": {
        "city": "臺北市",
        "district": "文山區",
        "category": "資源回收",
        "name": "景美 限時收受點",
        "address": "臺北市文山區溪洲街臨220號"
      }
    },
    {
      "type": "Feature",
      "geometry": {
        "type": "Point",
        "coordinates": [
          121.54636,
          25.15127
        ]
      },
      "properties": {
        "city": "臺北市",
        "district": "北投區",
        "category": "資源回收",
        "name": "陽明一班 限時收受點",
        "address": "臺北市北投區紗帽路141巷23號"
      }
    },
    {
      "type": "Feature",
      "geometry": {
        "type": "Point",
        "coordinates": [
          121.49836,
          25.11205
        ]
      },
      "properties": {
        "city": "臺北市",
        "district": "北投區",
        "category": "資源回收",
        "name": "石牌 限時收受點",
        "address": "臺北市北投區承德路7段393巷200號"
      }
    },
    {
      "type": "Feature",
      "geometry": {
        "type": "Point",
        "coordinates": [
          121.46703,
          25.12311
        ]
      },
      "properties": {
        "city": "臺北市",
        "district": "北投區",
        "category": "資源回收",
        "name": "關渡 限時收受點",
        "address": "臺北市北投區大度路3段臨250號"
      }
    },
    {
      "type": "Feature",
      "geometry": {
        "type": "Point",
        "coordinates": [
          121.56934,
          25.05127
        ]
      },
      "properties": {
        "city": "臺北市",
        "district": "松山區",
        "category": "資源回收",
        "name": "松山 限時收受點",
        "address": "臺北市松山區南京東路5段356號對面橋下"
      }
    },
    {
      "type": "Feature",
      "geometry": {
        "type": "Point",
        "coordinates": [
          121.62225,
          25.02897
        ]
      },
      "properties": {
        "city": "臺北市",
        "district": "南港區",
        "category": "資源回收",
        "name": "南港 停車場 限時收受點",
        "address": "臺北市南港區南深路37-1號"
      }
    },
    {
      "type": "Feature",
      "geometry": {
        "type": "Point",
        "coordinates": [
          121.61112,
          25.06107
        ]
      },
      "properties": {
        "city": "臺北市",
        "district": "南港區",
        "category": "資源回收",
        "name": "南港 限時收受點",
        "address": "臺北市南港區松河街699號"
      }
    },
    {
      "type": "Feature",
      "geometry": {
        "type": "Point",
        "coordinates": [
          121.489,
          25.03295
        ]
      },
      "properties": {
        "city": "臺北市",
        "district": "萬華區",
        "category": "資源回收",
        "name": "大理 限時收受點",
        "address": "臺北市萬華區長順街臨131號"
      }
    },
    {
      "type": "Feature",
      "geometry": {
        "type": "Point",
        "coordinates": [
          121.50975,
          25.05034
        ]
      },
      "properties": {
        "city": "臺北市",
        "district": "萬華區",
        "category": "資源回收",
        "name": "萬華 停車場 限時收受點",
        "address": "臺北市萬華區鄭州路及環河北路1段交口"
      }
    }
  ]
}