{"type":"FeatureCollection","features":[{"type":"Feature","geometry":{"type":"Point","coordinates":[121.4938,25.0726]},"properties":{"city":"新北市","district":"三重區","site_id":"67","site_name":"三重","status":"普通","aqi":"63","pollutant":"細懸浮微粒","so2_ppb":"1.2","co_ppm":"0.63","o3_ppb":"33","o3_8hr_ppb":"40","pm10_ug_m3":"42","pm2_5_ug_m3":"20","no2_ppb":"33","nox_ppb":"52.3","no_ppb":"19","wind_speed_m_sec":"","wind_direction_degree":"","co_8hr_ppm":"0.6","pm2_5_avg_ug_m3":"16.8","pm10_avg_ug_m3":"37","so2_avg_ppb":"0","publish_time":"2026/05/02 17:00:00","import_date":"","source_dataset":"MOENV AQX_P_432","updated_at":"2026-05-02T17:24:55+08:00","pressure_type":"空氣","score":"63"}},{"type":"Feature","geometry":{"type":"Point","coordinates":[121.481,25.069]},"properties":{"city":"新北市","district":"三重區","site_id":"8","site_name":"菜寮","status":"普通","aqi":"64","pollutant":"臭氧八小時","so2_ppb":"0.9","co_ppm":"0.37","o3_ppb":"55","o3_8hr_ppb":"59","pm10_ug_m3":"35","pm2_5_ug_m3":"19","no2_ppb":"15","nox_ppb":"16.1","no_ppb":"1","wind_speed_m_sec":"0.8","wind_direction_degree":"52","co_8hr_ppm":"0.3","pm2_5_avg_ug_m3":"15.3","pm10_avg_ug_m3":"34","so2_avg_ppb":"0","publish_time":"2026/05/02 17:00:00","import_date":"","source_dataset":"MOENV AQX_P_432","updated_at":"2026-05-02T17:24:55+08:00","pressure_type":"空氣","score":"64"}},{"type":"Feature","geometry":{"type":"Point","coordinates":[121.4519,24.9825]},"properties":{"city":"新北市","district":"土城區","site_id":"5","site_name":"土城","status":"普通","aqi":"64","pollutant":"臭氧八小時","so2_ppb":"","co_ppm":"","o3_ppb":"","o3_8hr_ppb":"59","pm10_ug_m3":"48","pm2_5_ug_m3":"19","no2_ppb":"","nox_ppb":"","no_ppb":"","wind_speed_m_sec":"0.6","wind_direction_degree":"174","co_8hr_ppm":"0.3","pm2_5_avg_ug_m3":"14.4","pm10_avg_ug_m3":"35","so2_avg_ppb":"0","publish_time":"2026/05/02 17:00:00","import_date":"","source_dataset":"MOENV AQX_P_432","updated_at":"2026-05-02T17:24:55+08:00","pressure_type":"空氣","score":"64"}},{"type":"Feature","geometry":{"type":"Point","coordinates":[121.5378,24.9772]},"properties":{"city":"新北市","district":"新店區","site_id":"4","site_name":"新店","status":"普通","aqi":"71","pollutant":"臭氧八小時","so2_ppb":"1.5","co_ppm":"0.36","o3_ppb":"62","o3_8hr_ppb":"61","pm10_ug_m3":"43","pm2_5_ug_m3":"25","no2_ppb":"13","nox_ppb":"13.9","no_ppb":"0.7","wind_speed_m_sec":"1.3","wind_direction_degree":"143","co_8hr_ppm":"0.2","pm2_5_avg_ug_m3":"15.1","pm10_avg_ug_m3":"29","so2_avg_ppb":"0","publish_time":"2026/05/02 17:00:00","import_date":"","source_dataset":"MOENV AQX_P_432","updated_at":"2026-05-02T17:24:55+08:00","pressure_type":"空氣","score":"71"}},{"type":"Feature","geometry":{"type":"Point","coordinates":[121.4325,25.038]},"properties":{"city":"新北市","district":"新莊區","site_id":"7","site_name":"新莊","status":"普通","aqi":"63","pollutant":"懸浮微粒","so2_ppb":"1.3","co_ppm":"0.35","o3_ppb":"50","o3_8hr_ppb":"55","pm10_ug_m3":"59","pm2_5_ug_m3":"18","no2_ppb":"21","nox_ppb":"22.3","no_ppb":"1.1","wind_speed_m_sec":"1.2","wind_direction_degree":"2","co_8hr_ppm":"0.2","pm2_5_avg_ug_m3":"15.1","pm10_avg_ug_m3":"42","so2_avg_ppb":"0","publish_time":"2026/05/02 17:00:00","import_date":"","source_dataset":"MOENV AQX_P_432","updated_at":"2026-05-02T17:24:55+08:00","pressure_type":"空氣","score":"63"}},{"type":"Feature","geometry":{"type":"Point","coordinates":[121.4587,25.013]},"properties":{"city":"新北市","district":"板橋區","site_id":"6","site_name":"板橋","status":"普通","aqi":"59","pollutant":"細懸浮微粒","so2_ppb":"1.8","co_ppm":"0.59","o3_ppb":"46","o3_8hr_ppb":"57","pm10_ug_m3":"48","pm2_5_ug_m3":"18","no2_ppb":"24","nox_ppb":"25.8","no_ppb":"1.4","wind_speed_m_sec":"0.8","wind_direction_degree":"156","co_8hr_ppm":"0.3","pm2_5_avg_ug_m3":"15.3","pm10_avg_ug_m3":"35","so2_avg_ppb":"1","publish_time":"2026/05/02 17:00:00","import_date":"","source_dataset":"MOENV AQX_P_432","updated_at":"2026-05-02T17:24:55+08:00","pressure_type":"空氣","score":"59"}},{"type":"Feature","geometry":{"type":"Point","coordinates":[121.3655,25.078]},"properties":{"city":"新北市","district":"林口區","site_id":"9","site_name":"林口","status":"普通","aqi":"61","pollutant":"臭氧八小時","so2_ppb":"1.8","co_ppm":"0.26","o3_ppb":"57","o3_8hr_ppb":"58","pm10_ug_m3":"32","pm2_5_ug_m3":"13","no2_ppb":"9","nox_ppb":"10.9","no_ppb":"1.2","wind_speed_m_sec":"0.7","wind_direction_degree":"257","co_8hr_ppm":"0.2","pm2_5_avg_ug_m3":"14.3","pm10_avg_ug_m3":"28","so2_avg_ppb":"1","publish_time":"2026/05/02 17:00:00","import_date":"","source_dataset":"MOENV AQX_P_432","updated_at":"2026-05-02T17:24:55+08:00","pressure_type":"空氣","score":"61"}},{"type":"Feature","geometry":{"type":"Point","coordinates":[121.3835,24.949]},"properties":{"city":"新北市","district":"樹林區","site_id":"311","site_name":"新北（樹林）","status":"普通","aqi":"64","pollutant":"細懸浮微粒","so2_ppb":"1.4","co_ppm":"0.34","o3_ppb":"59","o3_8hr_ppb":"59","pm10_ug_m3":"32","pm2_5_ug_m3":"22","no2_ppb":"9","nox_ppb":"11.2","no_ppb":"1.4","wind_speed_m_sec":"0.6","wind_direction_degree":"94","co_8hr_ppm":"0.3","pm2_5_avg_ug_m3":"17.1","pm10_avg_ug_m3":"28","so2_avg_ppb":"1","publish_time":"2026/05/02 17:00:00","import_date":"","source_dataset":"MOENV AQX_P_432","updated_at":"2026-05-02T17:24:55+08:00","pressure_type":"空氣","score":"64"}},{"type":"Feature","geometry":{"type":"Point","coordinates":[121.5163,25.017]},"properties":{"city":"新北市","district":"永和區","site_id":"70","site_name":"永和","status":"普通","aqi":"61","pollutant":"細懸浮微粒","so2_ppb":"1.8","co_ppm":"0.65","o3_ppb":"47","o3_8hr_ppb":"46","pm10_ug_m3":"47","pm2_5_ug_m3":"22","no2_ppb":"22","nox_ppb":"25.9","no_ppb":"2.9","wind_speed_m_sec":"0.6","wind_direction_degree":"109","co_8hr_ppm":"0.6","pm2_5_avg_ug_m3":"16.2","pm10_avg_ug_m3":"40","so2_avg_ppb":"1","publish_time":"2026/05/02 17:00:00","import_date":"","source_dataset":"MOENV AQX_P_432","updated_at":"2026-05-02T17:24:55+08:00","pressure_type":"空氣","score":"61"}},{"type":"Feature","geometry":{"type":"Point","coordinates":[121.6408,25.0662]},"properties":{"city":"新北市","district":"汐止區","site_id":"2","site_name":"汐止","status":"良好","aqi":"48","pollutant":"","so2_ppb":"1.8","co_ppm":"0.49","o3_ppb":"53","o3_8hr_ppb":"52","pm10_ug_m3":"29","pm2_5_ug_m3":"14","no2_ppb":"10","nox_ppb":"11.4","no_ppb":"1","wind_speed_m_sec":"1","wind_direction_degree":"34","co_8hr_ppm":"0.2","pm2_5_avg_ug_m3":"12","pm10_avg_ug_m3":"23","so2_avg_ppb":"1","publish_time":"2026/05/02 17:00:00","import_date":"","source_dataset":"MOENV AQX_P_432","updated_at":"2026-05-02T17:24:55+08:00","pressure_type":"空氣","score":"48"}},{"type":"Feature","geometry":{"type":"Point","coordinates":[121.4492,25.1645]},"properties":{"city":"新北市","district":"淡水區","site_id":"10","site_name":"淡水","status":"普通","aqi":"67","pollutant":"臭氧八小時","so2_ppb":"1.3","co_ppm":"0.26","o3_ppb":"59","o3_8hr_ppb":"60","pm10_ug_m3":"42","pm2_5_ug_m3":"19","no2_ppb":"13","nox_ppb":"14","no_ppb":"0.9","wind_speed_m_sec":"","wind_direction_degree":"","co_8hr_ppm":"0.2","pm2_5_avg_ug_m3":"17","pm10_avg_ug_m3":"30","so2_avg_ppb":"0","publish_time":"2026/05/02 17:00:00","import_date":"","source_dataset":"MOENV AQX_P_432","updated_at":"2026-05-02T17:24:55+08:00","pressure_type":"空氣","score":"67"}},{"type":"Feature","geometry":{"type":"Point","coordinates":[121.5366,25.2968]},"properties":{"city":"新北市","district":"石門區","site_id":"84","site_name":"富貴角","status":"普通","aqi":"93","pollutant":"臭氧八小時","so2_ppb":"0.7","co_ppm":"0.18","o3_ppb":"74","o3_8hr_ppb":"68","pm10_ug_m3":"36","pm2_5_ug_m3":"13","no2_ppb":"1","nox_ppb":"1.2","no_ppb":"0","wind_speed_m_sec":"0.6","wind_direction_degree":"15","co_8hr_ppm":"0.1","pm2_5_avg_ug_m3":"11.6","pm10_avg_ug_m3":"32","so2_avg_ppb":"1","publish_time":"2026/05/02 17:00:00","import_date":"","source_dataset":"MOENV AQX_P_432","updated_at":"2026-05-02T17:24:55+08:00","pressure_type":"空氣","score":"93"}},{"type":"Feature","geometry":{"type":"Point","coordinates":[121.5265,25.0624]},"properties":{"city":"臺北市","district":"中山區","site_id":"12","site_name":"中山","status":"普通","aqi":"68","pollutant":"細懸浮微粒","so2_ppb":"","co_ppm":"","o3_ppb":"","o3_8hr_ppb":"55","pm10_ug_m3":"38","pm2_5_ug_m3":"17","no2_ppb":"","nox_ppb":"","no_ppb":"","wind_speed_m_sec":"0.7","wind_direction_degree":"82","co_8hr_ppm":"0.4","pm2_5_avg_ug_m3":"18.6","pm10_avg_ug_m3":"37","so2_avg_ppb":"0","publish_time":"2026/05/02 17:00:00","import_date":"","source_dataset":"MOENV AQX_P_432","updated_at":"2026-05-02T17:24:55+08:00","pressure_type":"空氣","score":"68"}},{"type":"Feature","geometry":{"type":"Point","coordinates":[121.5167,25.1033]},"properties":{"city":"臺北市","district":"北投區","site_id":"11","site_name":"士林","status":"普通","aqi":"56","pollutant":"細懸浮微粒","so2_ppb":"1.5","co_ppm":"0.32","o3_ppb":"44","o3_8hr_ppb":"55","pm10_ug_m3":"35","pm2_5_ug_m3":"17","no2_ppb":"15","nox_ppb":"15.8","no_ppb":"0.4","wind_speed_m_sec":"0.2","wind_direction_degree":"29","co_8hr_ppm":"0.2","pm2_5_avg_ug_m3":"14.4","pm10_avg_ug_m3":"34","so2_avg_ppb":"0","publish_time":"2026/05/02 17:00:00","import_date":"","source_dataset":"MOENV AQX_P_432","updated_at":"2026-05-02T17:24:55+08:00","pressure_type":"空氣","score":"56"}},{"type":"Feature","geometry":{"type":"Point","coordinates":[121.5296,25.1827]},"properties":{"city":"臺北市","district":"北投區","site_id":"64","site_name":"陽明","status":"良好","aqi":"45","pollutant":"","so2_ppb":"1.2","co_ppm":"0.25","o3_ppb":"49","o3_8hr_ppb":"49","pm10_ug_m3":"33","pm2_5_ug_m3":"12","no2_ppb":"4","nox_ppb":"4.5","no_ppb":"0.1","wind_speed_m_sec":"","wind_direction_degree":"","co_8hr_ppm":"0.2","pm2_5_avg_ug_m3":"11.2","pm10_avg_ug_m3":"25","so2_avg_ppb":"0","publish_time":"2026/05/02 17:00:00","import_date":"","source_dataset":"MOENV AQX_P_432","updated_at":"2026-05-02T17:24:55+08:00","pressure_type":"空氣","score":"45"}},{"type":"Feature","geometry":{"type":"Point","coordinates":[121.5134,25.0633]},"properties":{"city":"臺北市","district":"大同區","site_id":"16","site_name":"大同","status":"普通","aqi":"62","pollutant":"細懸浮微粒","so2_ppb":"1.1","co_ppm":"0.7","o3_ppb":"35","o3_8hr_ppb":"45","pm10_ug_m3":"34","pm2_5_ug_m3":"19","no2_ppb":"32","nox_ppb":"38.9","no_ppb":"6.9","wind_speed_m_sec":"","wind_direction_degree":"","co_8hr_ppm":"0.6","pm2_5_avg_ug_m3":"16.5","pm10_avg_ug_m3":"33","so2_avg_ppb":"0","publish_time":"2026/05/02 17:00:00","import_date":"","source_dataset":"MOENV AQX_P_432","updated_at":"2026-05-02T17:24:55+08:00","pressure_type":"空氣","score":"62"}},{"type":"Feature","geometry":{"type":"Point","coordinates":[121.5296,25.0206]},"properties":{"city":"臺北市","district":"大安區","site_id":"14","site_name":"古亭","status":"普通","aqi":"64","pollutant":"臭氧八小時","so2_ppb":"1.9","co_ppm":"0.41","o3_ppb":"51","o3_8hr_ppb":"59","pm10_ug_m3":"42","pm2_5_ug_m3":"20","no2_ppb":"19","nox_ppb":"21","no_ppb":"1","wind_speed_m_sec":"0.9","wind_direction_degree":"111","co_8hr_ppm":"0.3","pm2_5_avg_ug_m3":"14.2","pm10_avg_ug_m3":"32","so2_avg_ppb":"1","publish_time":"2026/05/02 17:00:00","import_date":"","source_dataset":"MOENV AQX_P_432","updated_at":"2026-05-02T17:24:55+08:00","pressure_type":"空氣","score":"64"}},{"type":"Feature","geometry":{"type":"Point","coordinates":[121.5786,25.05]},"properties":{"city":"臺北市","district":"松山區","site_id":"15","site_name":"松山","status":"普通","aqi":"61","pollutant":"臭氧八小時","so2_ppb":"2.7","co_ppm":"0.37","o3_ppb":"50","o3_8hr_ppb":"58","pm10_ug_m3":"40","pm2_5_ug_m3":"21","no2_ppb":"16","nox_ppb":"18.3","no_ppb":"1.5","wind_speed_m_sec":"1.1","wind_direction_degree":"41","co_8hr_ppm":"0.3","pm2_5_avg_ug_m3":"15.5","pm10_avg_ug_m3":"37","so2_avg_ppb":"1","publish_time":"2026/05/02 17:00:00","import_date":"","source_dataset":"MOENV AQX_P_432","updated_at":"2026-05-02T17:24:55+08:00","pressure_type":"空氣","score":"61"}},{"type":"Feature","geometry":{"type":"Point","coordinates":[121.508,25.0465]},"properties":{"city":"臺北市","district":"萬華區","site_id":"13","site_name":"萬華","status":"普通","aqi":"62","pollutant":"細懸浮微粒","so2_ppb":"1.2","co_ppm":"0.44","o3_ppb":"47","o3_8hr_ppb":"55","pm10_ug_m3":"39","pm2_5_ug_m3":"19","no2_ppb":"21","nox_ppb":"21.8","no_ppb":"0.8","wind_speed_m_sec":"0.4","wind_direction_degree":"357","co_8hr_ppm":"0.4","pm2_5_avg_ug_m3":"16.4","pm10_avg_ug_m3":"33","so2_avg_ppb":"0","publish_time":"2026/05/02 17:00:00","import_date":"","source_dataset":"MOENV AQX_P_432","updated_at":"2026-05-02T17:24:55+08:00","pressure_type":"空氣","score":"62"}}]}